[{"OBJECT_NAME":"STARLINK-32418","OBJECT_ID":"2024-249W","EPOCH":"2025-08-29T06:04:57.292896","MEAN_MOTION":15.27608404,"ECCENTRICITY":0.00022307,"INCLINATION":43.0001,"RA_OF_ASC_NODE":320.7947,"ARG_OF_PERICENTER":292.6498,"MEAN_ANOMALY":67.4118,"EPHEMERIS_TYPE":0,"CLASSIFICATION_TYPE":"U","NORAD_CAT_ID":62429,"ELEMENT_SET_NO":999,"REV_AT_EPOCH":3838,"BSTAR":0.0014492241,"MEAN_MOTION_DOT":0.00039869,"MEAN_MOTION_DDOT":0},{"OBJECT_NAME":"STARLINK-32702","OBJECT_ID":"2024-251A","EPOCH":"2025-08-29T05:44:37.438944","MEAN_MOTION":15.3019939,"ECCENTRICITY":0.00010428,"INCLINATION":53.1555,"RA_OF_ASC_NODE":146.3635,"ARG_OF_PERICENTER":106.1179,"MEAN_ANOMALY":253.9936,"EPHEMERIS_TYPE":0,"CLASSIFICATION_TYPE":"U","NORAD_CAT_ID":62432,"ELEMENT_SET_NO":999,"REV_AT_EPOCH":3852,"BSTAR":0.0013762734,"MEAN_MOTION_DOT":0.00040624,"MEAN_MOTION_DDOT":0},{"OBJECT_NAME":"STARLINK-32712","OBJECT_ID":"2024-251B","EPOCH":"2025-08-29T06:03:46.928736","MEAN_MOTION":15.30158568,"ECCENTRICITY":9.903e-5,"INCLINATION":53.1573,"RA_OF_ASC_NODE":149.2824,"ARG_OF_PERICENTER":101.0811,"MEAN_ANOMALY":259.0301,"EPHEMERIS_TYPE":0,"CLASSIFICATION_TYPE":"U","NORAD_CAT_ID":62433,"ELEMENT_SET_NO":999,"REV_AT_EPOCH":3848,"BSTAR":0.0013339221,"MEAN_MOTION_DOT":0.00039306,"MEAN_MOTION_DDOT":0},{"OBJECT_NAME":"STARLINK-32674","OBJECT_ID":"2024-251C","EPOCH":"2025-08-29T00:26:55.342176","MEAN_MOTION":15.30201258,"ECCENTRICITY":0.0001248,"INCLINATION":53.1582,"RA_OF_ASC_NODE":149.9602,"ARG_OF_PERICENTER":49.7088,"MEAN_ANOMALY":310.4022,"EPHEMERIS_TYPE":0,"CLASSIFICATION_TYPE":"U","NORAD_CAT_ID":62434,"ELEMENT_SET_NO":999,"REV_AT_EPOCH":3845,"BSTAR":0.0013533918,"MEAN_MOTION_DOT":0.00039942,"MEAN_MOTION_DDOT":0},{"OBJECT_NAME":"STARLINK-32711","OBJECT_ID":"2024-251D","EPOCH":"2025-08-28T23:43:00.480000","MEAN_MOTION":15.30187112,"ECCENTRICITY":0.00010536,"INCLINATION":53.1585,"RA_OF_ASC_NODE":150.4772,"ARG_OF_PERICENTER":91.9964,"MEAN_ANOMALY":268.1157,"EPHEMERIS_TYPE":0,"CLASSIFICATION_TYPE":"U","NORAD_CAT_ID":62435,"ELEMENT_SET_NO":999,"REV_AT_EPOCH":3844,"BSTAR":0.0012022766,"MEAN_MOTION_DOT":0.00035404,"MEAN_MOTION_DDOT":0},{"OBJECT_NAME":"STARLINK-32697","OBJECT_ID":"2024-251E","EPOCH":"2025-08-29T00:58:49.861632","MEAN_MOTION":15.30185022,"ECCENTRICITY":9.577e-5,"INCLINATION":53.1553,"RA_OF_ASC_NODE":150.0962,"ARG_OF_PERICENTER":90.072,"MEAN_ANOMALY":270.0391,"EPHEMERIS_TYPE":0,"CLASSIFICATION_TYPE":"U","NORAD_CAT_ID":62436,"ELEMENT_SET_NO":999,"REV_AT_EPOCH":3845,"BSTAR":0.0012980408,"MEAN_MOTION_DOT":0.00038265,"MEAN_MOTION_DDOT":0},{"OBJECT_NAME":"STARLINK-32693","OBJECT_ID":"2024-251F","EPOCH":"2025-08-29T06:14:59.968320","MEAN_MOTION":15.3025737,"ECCENTRICITY":0.00012235,"INCLINATION":53.1585,"RA_OF_ASC_NODE":146.4192,"ARG_OF_PERICENTER":73.4129,"MEAN_ANOMALY":286.7007,"EPHEMERIS_TYPE":0,"CLASSIFICATION_TYPE":"U","NORAD_CAT_ID":62437,"ELEMENT_SET_NO":999,"REV_AT_EPOCH":3852,"BSTAR":0.0017434813,"MEAN_MOTION_DOT":0.0005173,"MEAN_MOTION_DDOT":0},{"OBJECT_NAME":"STARLINK-32721","OBJECT_ID":"2024-251G","EPOCH":"2025-08-29T00:48:10.929312","MEAN_MOTION":15.30150869,"ECCENTRICITY":0.00012486,"INCLINATION":53.1551,"RA_OF_ASC_NODE":150.0439,"ARG_OF_PERICENTER":53.0132,"MEAN_ANOMALY":307.0983,"EPHEMERIS_TYPE":0,"CLASSIFICATION_TYPE":"U","NORAD_CAT_ID":62438,"ELEMENT_SET_NO":999,"REV_AT_EPOCH":3839,"BSTAR":0.0011641108,"MEAN_MOTION_DOT":0.00034225,"MEAN_MOTION_DDOT":0},{"OBJECT_NAME":"STARLINK-32709","OBJECT_ID":"2024-251H","EPOCH":"2025-08-29T01:45:56.436768","MEAN_MOTION":15.30208237,"ECCENTRICITY":0.00011818,"INCLINATION":53.1592,"RA_OF_ASC_NODE":150.3009,"ARG_OF_PERICENTER":70.1162,"MEAN_ANOMALY":289.9966,"EPHEMERIS_TYPE":0,"CLASSIFICATION_TYPE":"U","NORAD_CAT_ID":62439,"ELEMENT_SET_NO":999,"REV_AT_EPOCH":3845,"BSTAR":0.001468078,"MEAN_MOTION_DOT":0.00043386,"MEAN_MOTION_DDOT":0},{"OBJECT_NAME":"STARLINK-32689","OBJECT_ID":"2024-251J","EPOCH":"2025-08-29T03:28:56.729856","MEAN_MOTION":15.30202917,"ECCENTRICITY":0.00010615,"INCLINATION":53.1585,"RA_OF_ASC_NODE":149.322,"ARG_OF_PERICENTER":78.1196,"MEAN_ANOMALY":281.9924,"EPHEMERIS_TYPE":0,"CLASSIFICATION_TYPE":"U","NORAD_CAT_ID":62440,"ELEMENT_SET_NO":999,"REV_AT_EPOCH":3847,"BSTAR":0.0017137891,"MEAN_MOTION_DOT":0.0005075,"MEAN_MOTION_DDOT":0},{"OBJECT_NAME":"STARLINK-32724","OBJECT_ID":"2024-251K","EPOCH":"2025-08-29T03:59:20.176800","MEAN_MOTION":15.30217887,"ECCENTRICITY":0.0001189,"INCLINATION":53.1568,"RA_OF_ASC_NODE":149.4555,"ARG_OF_PERICENTER":79.3833,"MEAN_ANOMALY":280.7302,"EPHEMERIS_TYPE":0,"CLASSIFICATION_TYPE":"U","NORAD_CAT_ID":62441,"ELEMENT_SET_NO":999,"REV_AT_EPOCH":3831,"BSTAR":0.0016690565,"MEAN_MOTION_DOT":0.0004943,"MEAN_MOTION_DDOT":0},{"OBJECT_NAME":"STARLINK-32291","OBJECT_ID":"2024-251L","EPOCH":"2025-08-29T04:11:29.459328","MEAN_MOTION":15.30204951,"ECCENTRICITY":0.000109,"INCLINATION":53.1567,"RA_OF_ASC_NODE":149.5059,"ARG_OF_PERICENTER":68.1139,"MEAN_ANOMALY":291.9977,"EPHEMERIS_TYPE":0,"CLASSIFICATION_TYPE":"U","NORAD_CAT_ID":62442,"ELEMENT_SET_NO":999,"REV_AT_EPOCH":3816,"BSTAR":0.0015385351,"MEAN_MOTION_DOT":0.00045494,"MEAN_MOTION_DDOT":0},{"OBJECT_NAME":"STARLINK-32736","OBJECT_ID":"2024-251M","EPOCH":"2025-08-29T02:48:04.686624","MEAN_MOTION":15.30193957,"ECCENTRICITY":0.00010718,"INCLINATION":53.1576,"RA_OF_ASC_NODE":149.8577,"ARG_OF_PERICENTER":73.555,"MEAN_ANOMALY":286.5568,"EPHEMERIS_TYPE":0,"CLASSIFICATION_TYPE":"U","NORAD_CAT_ID":62443,"ELEMENT_SET_NO":999,"REV_AT_EPOCH":3830,"BSTAR":0.00089225239,"MEAN_MOTION_DOT":0.00026155,"MEAN_MOTION_DDOT":0},{"OBJECT_NAME":"STARLINK-32737","OBJECT_ID":"2024-251N","EPOCH":"2025-08-29T03:50:58.569504","MEAN_MOTION":15.30237472,"ECCENTRICITY":6.876e-5,"INCLINATION":53.1565,"RA_OF_ASC_NODE":147.2877,"ARG_OF_PERICENTER":76.7986,"MEAN_ANOMALY":283.3092,"EPHEMERIS_TYPE":0,"CLASSIFICATION_TYPE":"U","NORAD_CAT_ID":62444,"ELEMENT_SET_NO":999,"REV_AT_EPOCH":3850,"BSTAR":0.0011773946,"MEAN_MOTION_DOT":0.00034715,"MEAN_MOTION_DDOT":0},{"OBJECT_NAME":"STARLINK-32683","OBJECT_ID":"2024-251P","EPOCH":"2025-08-29T01:39:51.385536","MEAN_MOTION":15.30192155,"ECCENTRICITY":0.00010193,"INCLINATION":53.1591,"RA_OF_ASC_NODE":150.2678,"ARG_OF_PERICENTER":79.861,"MEAN_ANOMALY":280.2505,"EPHEMERIS_TYPE":0,"CLASSIFICATION_TYPE":"U","NORAD_CAT_ID":62445,"ELEMENT_SET_NO":999,"REV_AT_EPOCH":3845,"BSTAR":0.0010048572,"MEAN_MOTION_DOT":0.00029513,"MEAN_MOTION_DDOT":0},{"OBJECT_NAME":"STARLINK-32726","OBJECT_ID":"2024-251Q","EPOCH":"2025-08-29T03:57:47.721888","MEAN_MOTION":15.30155919,"ECCENTRICITY":9.056e-5,"INCLINATION":53.1567,"RA_OF_ASC_NODE":149.4458,"ARG_OF_PERICENTER":28.9598,"MEAN_ANOMALY":331.1453,"EPHEMERIS_TYPE":0,"CLASSIFICATION_TYPE":"U","NORAD_CAT_ID":62446,"ELEMENT_SET_NO":999,"REV_AT_EPOCH":3816,"BSTAR":0.00072968789,"MEAN_MOTION_DOT":0.00021285,"MEAN_MOTION_DDOT":0}]
