STARLINK-32418          
1 62429U 24249W   25241.25344089  .00039869  00000+0  14492-2 0  9999
2 62429  43.0001 320.7947 0002230 292.6498  67.4118 15.27608404 38388
STARLINK-32702          
1 62432U 24251A   25241.23932221  .00040624  00000+0  13763-2 0  9996
2 62432  53.1555 146.3635 0001042 106.1179 253.9936 15.30199390 38528
STARLINK-32712          
1 62433U 24251B   25241.25262649  .00039306  00000+0  13339-2 0  9993
2 62433  53.1573 149.2824 0000990 101.0811 259.0301 15.30158568 38489
STARLINK-32674          
1 62434U 24251C   25241.01869609  .00039942  00000+0  13534-2 0  9990
2 62434  53.1582 149.9602 0001248  49.7088 310.4022 15.30201258 38456
STARLINK-32711          
1 62435U 24251D   25240.98820000  .00035404  00000+0  12023-2 0  9999
2 62435  53.1585 150.4772 0001053  91.9964 268.1157 15.30187112 38440
STARLINK-32697          
1 62436U 24251E   25241.04085488  .00038265  00000+0  12980-2 0  9991
2 62436  53.1553 150.0962 0000957  90.0720 270.0391 15.30185022 38456
STARLINK-32693          
1 62437U 24251F   25241.26041630  .00051730  00000+0  17435-2 0  9999
2 62437  53.1585 146.4192 0001223  73.4129 286.7007 15.30257370 38523
STARLINK-32721          
1 62438U 24251G   25241.03345983  .00034225  00000+0  11641-2 0  9996
2 62438  53.1551 150.0439 0001248  53.0132 307.0983 15.30150869 38397
STARLINK-32709          
1 62439U 24251H   25241.07356987  .00043386  00000+0  14681-2 0  9992
2 62439  53.1592 150.3009 0001181  70.1162 289.9966 15.30208237 38457
STARLINK-32689          
1 62440U 24251J   25241.14510104  .00050750  00000+0  17138-2 0  9998
2 62440  53.1585 149.3220 0001061  78.1196 281.9924 15.30202917 38473
STARLINK-32724          
1 62441U 24251K   25241.16620575  .00049430  00000+0  16691-2 0  9991
2 62441  53.1568 149.4555 0001189  79.3833 280.7302 15.30217887 38311
STARLINK-32291          
1 62442U 24251L   25241.17464652  .00045494  00000+0  15385-2 0  9990
2 62442  53.1567 149.5059 0001090  68.1139 291.9977 15.30204951 38160
STARLINK-32736          
1 62443U 24251M   25241.11672091  .00026155  00000+0  89225-3 0  9991
2 62443  53.1576 149.8577 0001071  73.5550 286.5568 15.30193957 38300
STARLINK-32737          
1 62444U 24251N   25241.16040011  .00034715  00000+0  11774-2 0  9992
2 62444  53.1565 147.2877 0000687  76.7986 283.3092 15.30237472 38504
STARLINK-32683          
1 62445U 24251P   25241.06934474  .00029513  00000+0  10049-2 0  9991
2 62445  53.1591 150.2678 0001019  79.8610 280.2505 15.30192155 38452
STARLINK-32726          
1 62446U 24251Q   25241.16513567  .00021285  00000+0  72969-3 0  9997
2 62446  53.1567 149.4458 0000905  28.9598 331.1453 15.30155919 38168
